BEIDOU-2 IGSO-1 (C06)   
1 36828U 10036A   23295.34509566 -.00000113  00000+0  00000+0 0  9990
2 36828  54.2329 171.7330 0037830 191.6662 256.8170  1.00296310 48517
BEIDOU-2 G4 (C04)       
1 37210U 10057A   23295.20915848 -.00000111  00000+0  00000+0 0  9996
2 37210   1.2828  62.9026 0007326 165.3760  37.4478  1.00271472 47566
BEIDOU-2 IGSO-2 (C07)   
1 37256U 10068A   23295.17719306 -.00000182  00000+0  00000+0 0  9993
2 37256  49.3255 283.7264 0031547 214.6467  64.0056  1.00267853 47076
BEIDOU-2 IGSO-3 (C08)   
1 37384U 11013A   23294.87609663 -.00000177  00000+0  00000+0 0  9990
2 37384  61.0082  49.4369 0028505 178.0727 225.8713  1.00269089 45957
BEIDOU-2 IGSO-4 (C09)   
1 37763U 11038A   23294.66104795 -.00000039  00000+0  00000+0 0  9998
2 37763  54.5064 174.2920 0111880 227.4015 320.9271  1.00264130 44927
BEIDOU-2 IGSO-5 (C10)   
1 37948U 11073A   23294.72678013 -.00000126  00000+0  00000+0 0  9995
2 37948  49.4523 283.4022 0094518 221.2816 241.5931  1.00261275 43411
BEIDOU-2 G5 (C05)       
1 38091U 12008A   23295.07453399  .00000057  00000+0  00000+0 0  9993
2 38091   1.8225  69.1366 0005791 182.8417 223.8973  1.00275292 42766
BEIDOU-2 M3 (C11)       
1 38250U 12018A   23294.98748844 -.00000056  00000+0  00000+0 0  9992
2 38250  56.4850 337.2934 0025063 258.4073 101.3723  1.86231046 78232
BEIDOU-2 M4 (C12)       
1 38251U 12018B   23294.38177302 -.00000055  00000+0  00000+0 0  9991
2 38251  56.3953 336.6031 0015953 259.4200 100.4613  1.86231767 77885
BEIDOU-2 M6 (C14)       
1 38775U 12050B   23295.16539764  .00000062  00000+0  00000+0 0  9996
2 38775  55.7290  95.1641 0010597 338.9258  21.0485  1.86231058 75619
BEIDOU-2 G6 (C02)       
1 38953U 12059A   23294.96109459 -.00000173  00000+0  00000+0 0  9998
2 38953   1.9458  81.7356 0006831 299.5922  78.7900  1.00267987 40198
BEIDOU-3S IGSO-1S (C31) 
1 40549U 15019A   23295.51086544 -.00000127  00000+0  00000+0 0  9991
2 40549  51.0168 307.0052 0037138 195.8464 162.0053  1.00300807 31348
BEIDOU-3S M2S (C57)     
1 40748U 15037A   23294.58407103 -.00000054  00000+0  00000+0 0  9995
2 40748  55.6344 335.1664 0012725 248.3596 111.5645  1.86233046 56067
BEIDOU-3S M1S (C58)     
1 40749U 15037B   23295.39118736 -.00000054  00000+0  00000+0 0  9997
2 40749  55.6370 335.1254 0005156 297.0761  62.9311  1.86232775 56075
BEIDOU-3S IGSO-2S (C56) 
1 40938U 15053A   23294.85834410 -.00000122  00000+0  00000+0 0  9995
2 40938  50.7393 270.1939 0047137 194.9673 330.4672  1.00271776 29631
BEIDOU-2 IGSO-6 (C13)   
1 41434U 16021A   23294.76882157 -.00000157  00000+0  00000+0 0  9992
2 41434  58.8233  47.7862 0048990 219.3740 136.3342  1.00273069 27758
BEIDOU-2 G7 (C03)       
1 41586U 16037A   23294.86426148 -.00000352  00000+0  00000+0 0  9999
2 41586   1.9831  69.0163 0007209 341.0937  41.6622  1.00273070 27075
BEIDOU-3 M1 (C19)       
1 43001U 17069A   23295.46537005  .00000063  00000+0  00000+0 0  9999
2 43001  55.8731  95.2204 0007425 298.5754  59.1870  1.86231626 40558
BEIDOU-3 M2 (C20)       
1 43002U 17069B   23294.86850456  .00000061  00000+0  00000+0 0  9999
2 43002  55.8794  95.2754 0005212 330.3350  29.6531  1.86230992 40547
BEIDOU-3 M7 (C27)       
1 43107U 18003A   23294.61916597 -.00000056  00000+0  00000+0 0  9991
2 43107  55.0910 335.8610 0002607  68.1405 291.9468  1.86232319 39299
BEIDOU-3 M8 (C28)       
1 43108U 18003B   23294.55765803 -.00000056  00000+0  00000+0 0  9997
2 43108  55.0840 335.8500 0004829 252.7094 107.2972  1.86230783 39307
BEIDOU-3 M4 (C22)       
1 43207U 18018A   23294.46274699  .00000060  00000+0  00000+0 0  9995
2 43207  55.8384  95.3507 0003730  19.5750 340.4564  1.86231165 38684
BEIDOU-3 M3 (C21)       
1 43208U 18018B   23294.52940894  .00000060  00000+0  00000+0 0  9990
2 43208  55.8379  95.3529 0004914 311.3005  48.6745  1.86231179 38687
BEIDOU-3 M9 (C29)       
1 43245U 18029A   23294.75209369 -.00000053  00000+0  00000+0 0  9996
2 43245  54.9836 333.5866 0001946 246.4753 113.5627  1.86232345 37841
BEIDOU-3 M10 (C30)      
1 43246U 18029B   23294.68205483 -.00000053  00000+0  00000+0 0  9992
2 43246  54.9807 333.6172 0003254 339.6781  20.3675  1.86232766 37835
BEIDOU-2 IGSO-7 (C16)   
1 43539U 18057A   23294.59608671 -.00000120  00000+0  00000+0 0  9999
2 43539  55.1174 171.4452 0063636 229.8092 316.8818  1.00268859 19430
BEIDOU-3 M5 (C23)       
1 43581U 18062A   23294.90227615 -.00000001  00000+0  00000+0 0  9990
2 43581  54.1669 215.2919 0003719 297.3807  62.6073  1.86231748 35584
BEIDOU-3 M6 (C24)       
1 43582U 18062B   23294.23178165  .00000007  00000+0  00000+0 0  9997
2 43582  54.1667 215.3044 0005906  14.4612 345.5838  1.86229690 35579
BEIDOU-3 M12 (C26)      
1 43602U 18067A   23295.24155206 -.00000005  00000+0  00000+0 0  9997
2 43602  54.2545 213.9293 0007604  19.6788 340.3771  1.86231396 35076
BEIDOU-3 M11 (C25)      
1 43603U 18067B   23293.76454567  .00000013  00000+0  00000+0 0  9993
2 43603  54.2519 213.9451 0004490   9.3472 350.6929  1.86231368 35078
BEIDOU-3 M13 (C32)      
1 43622U 18072A   23294.79742494  .00000060  00000+0  00000+0 0  9995
2 43622  55.8085  94.8777 0004040 287.1413  72.8316  1.86231282 34609
BEIDOU-3 M14 (C33)      
1 43623U 18072B   23295.19983230  .00000062  00000+0  00000+0 0  9998
2 43623  55.8108  94.8569 0002056 344.0034  16.0078  1.86231285 34600
BEIDOU-3 M16 (C35)      
1 43647U 18078A   23294.28954141 -.00000053  00000+0  00000+0 0  9999
2 43647  54.8799 333.7208 0006208   0.4175 359.6417  1.86227168 34099
BEIDOU-3 M15 (C34)      
1 43648U 18078B   23294.41889994 -.00000053  00000+0  00000+0 0  9998
2 43648  54.8755 333.7199 0002960   2.2988 357.7611  1.86232123 34119
BEIDOU-3 G1 (C59)       
1 43683U 18085A   23295.44890532 -.00000277  00000+0  00000+0 0  9997
2 43683   1.6198 121.1864 0002547   3.7724 207.3779  1.00272680 18331
BEIDOU-3 M17 (C36)      
1 43706U 18093A   23294.56672892  .00000003  00000+0  00000+0 0  9997
2 43706  54.2495 215.2241 0008826 286.9002  73.0302  1.86231833 33465
BEIDOU-3 M18 (C37)      
1 43707U 18093B   23294.43323724  .00000005  00000+0  00000+0 0  9993
2 43707  54.2503 215.2204 0007666 317.0386  42.9293  1.86229676 33474
BEIDOU-3 IGSO-1 (C38)   
1 44204U 19023A   23294.75114653 -.00000210  00000+0  00000+0 0  9993
2 44204  57.2905  47.7471 0024443 197.1750 175.0243  1.00267818 16621
BEIDOU-2 G8 (C01)       
1 44231U 19027A   23294.87664453 -.00000245  00000+0  00000+0 0  9996
2 44231   1.3586  70.8344 0004449 150.4205 268.9145  1.00275458 16366
BEIDOU-3 IGSO-2 (C39)   
1 44337U 19035A   23294.66863773 -.00000118  00000+0  00000+0 0  9994
2 44337  55.1522 167.3757 0032961 194.7562  27.0768  1.00259566 15947
BEIDOU-3 M24 (C46)      
1 44542U 19061A   23294.50456754  .00000004  00000+0  00000+0 0  9994
2 44542  54.4770 215.4651 0008603 352.4926   7.5215  1.86231468 27738
BEIDOU-3 M23 (C45)      
1 44543U 19061B   23294.38630389  .00000006  00000+0  00000+0 0  9991
2 44543  54.4753 215.4385 0005676 341.6254 211.0464  1.86231712 27735
BEIDOU-3 IGSO-3 (C40)   
1 44709U 19073A   23294.39401109 -.00000156  00000+0  00000+0 0  9992
2 44709  56.4584 291.2548 0034853 190.8326 169.0870  1.00267760 14714
BEIDOU-3 M22 (C44)      
1 44793U 19078A   23294.88690253 -.00000053  00000+0  00000+0 0  9990
2 44793  54.7278 333.6614 0004972   6.5728 353.4921  1.86232028 26601
BEIDOU-3 M21 (C43)      
1 44794U 19078B   23295.01735219 -.00000053  00000+0  00000+0 0  9999
2 44794  54.7015 333.6379 0003097 351.3237   8.7292  1.86232512 26601
BEIDOU-3 M19 (C41)      
1 44864U 19090A   23291.99637552  .00000046  00000+0  00000+0 0  9996
2 44864  55.7404  95.1562 0015371 272.6180  55.6882  1.86231629 26127
BEIDOU-3 M20 (C42)      
1 44865U 19090B   23294.58663684  .00000060  00000+0  00000+0 0  9996
2 44865  55.7444  95.1023 0012999 287.2315  67.4978  1.86231451 26152
BEIDOU-3 G2 (C60)       
1 45344U 20017A   23294.87133333 -.00000139  00000+0  00000+0 0  9993
2 45344   2.0804  18.6439 0003223 187.1279 218.0063  1.00270272 13557
BEIDOU-3 G3 (C61)       
1 45807U 20040A   23295.44307480 -.00000355  00000+0  00000+0 0  9993
2 45807   0.5874 354.3967 0008821 314.8694 351.3793  1.00276956 12371
BEIDOU-3 G4             
1 56564U 23066A   23294.87969031 -.00000114  00000+0  00000+0 0  9991
2 56564   2.7277 288.6311 0005947 224.2530 353.9150  1.00270828  1673
